[{"OBJECT_NAME":"STARLINK-32580","OBJECT_ID":"2024-217U","EPOCH":"2026-03-09T12:36:17.560800","MEAN_MOTION":15.30199409,"ECCENTRICITY":6.749e-5,"INCLINATION":53.158,"RA_OF_ASC_NODE":182.0554,"ARG_OF_PERICENTER":76.1585,"MEAN_ANOMALY":283.9491,"EPHEMERIS_TYPE":0,"CLASSIFICATION_TYPE":"U","NORAD_CAT_ID":62075,"ELEMENT_SET_NO":999,"REV_AT_EPOCH":7357,"BSTAR":0.0010673044,"MEAN_MOTION_DOT":0.00031384,"MEAN_MOTION_DDOT":0},{"OBJECT_NAME":"HAWK-11A","OBJECT_ID":"2024-247F","EPOCH":"2026-03-09T12:17:43.893312","MEAN_MOTION":15.28849427,"ECCENTRICITY":0.00054663,"INCLINATION":44.9941,"RA_OF_ASC_NODE":114.3328,"ARG_OF_PERICENTER":327.3713,"MEAN_ANOMALY":32.6832,"EPHEMERIS_TYPE":0,"CLASSIFICATION_TYPE":"U","NORAD_CAT_ID":62382,"ELEMENT_SET_NO":999,"REV_AT_EPOCH":6774,"BSTAR":0.00034106017,"MEAN_MOTION_DOT":9.457e-5,"MEAN_MOTION_DDOT":0}]
